[{"OBJECT_NAME":"FLOCK 4G-7","OBJECT_ID":"2025-009R","EPOCH":"2026-03-09T19:11:56.638176","MEAN_MOTION":15.27141471,"ECCENTRICITY":0.00013963,"INCLINATION":97.3984,"RA_OF_ASC_NODE":150.827,"ARG_OF_PERICENTER":336.9783,"MEAN_ANOMALY":23.1393,"EPHEMERIS_TYPE":0,"CLASSIFICATION_TYPE":"U","NORAD_CAT_ID":62624,"ELEMENT_SET_NO":999,"REV_AT_EPOCH":6372,"BSTAR":0.0004316781,"MEAN_MOTION_DOT":0.00011422,"MEAN_MOTION_DDOT":0},{"OBJECT_NAME":"STARLINK-35905","OBJECT_ID":"2025-294U","EPOCH":"2026-03-08T06:51:18.343008","MEAN_MOTION":15.27561392,"ECCENTRICITY":0.00010914,"INCLINATION":43.0005,"RA_OF_ASC_NODE":46.0731,"ARG_OF_PERICENTER":271.0703,"MEAN_ANOMALY":89.0024,"EPHEMERIS_TYPE":0,"CLASSIFICATION_TYPE":"U","NORAD_CAT_ID":67048,"ELEMENT_SET_NO":999,"REV_AT_EPOCH":1458,"BSTAR":0.001640366,"MEAN_MOTION_DOT":0.00045128,"MEAN_MOTION_DDOT":0}]
